C/2019 L2 (NEOWISE),e,152.2048,12.5537,18.7967,24.92735,0.0079194,0.93484819,9.0069,05/13.0/2022,2000,g 16.0,4.0
# From MPEC 2021-Y10
P/2019 LD2 (ATLAS),e,11.6204,179.5916,121.7024,5.241343,0.0821372,0.12781296,64.1851,05/13.0/2022,2000,g  8.5,4.0
# From MPEC 2022-J42
C/2019 L3 (ATLAS),h,01/09.6177/2022,48.3591,290.7896,171.6101,1.001686,3.554457,2000,4.5,4.0
# From MPC118095
C/2019 LB7 (Kleyna),e,164.2915,3.8894,336.4965,34.55930,0.0048513,0.92805713,5.5478,05/13.0/2022,2000,g 17.0,4.0
# From MPC118843
P/2019 M2 (ATLAS),e,12.2780,307.6082,332.5769,3.027864,0.1870680,0.64782062,197.4681,05/13.0/2022,2000,g 21.2,4.0
# From MPC118095
C/2019 M3 (ATLAS),h,01/01.6993/2019,99.4847,154.9098,87.8826,1.000040,2.419570,2000,12.2,4.0
# From MPEC 2022-C56
C/2019 N1 (ATLAS),e,82.4289,13.5744,193.4424,3225,0.0000054,0.99947133,0.0000,12/01.6954/2020,2000,g  7.5,4.0
# From MPEC 2022-A21
C/2019 NJ3 (Lemmon),h,10/22.6738/2020,99.4362,142.4577,246.8894,1.001869,4.362447,2000,9.0,4.0
# From MPEC 2022-HC2
A/2019 O2,e,93.2969,48.2799,129.6622,57.50748,0.0022600,0.83162779,359.2547,05/13.0/2022,2000,g  9.5,2.0
# From MPEC 2022-J42
C/2019 O3 (Palomar),h,03/09.0370/2021,89.8192,300.3945,60.1028,1.003748,8.820117,2000,3.5,4.0
# From MPEC 2021-P47
A/2019 O4,e,115.0962,354.9078,61.8801,33.10673,0.0051740,0.88986295,4.2561,05/13.0/2022,2000,g 15.5,2.0
# From MPEC 2021-N06
C/2019 Q1 (Lemmon),h,07/20.2644/2020,155.7252,42.4725,56.1462,1.000132,4.999859,2000,8.5,4.0
# From MPC117072
A/2019 Q2,e,159.0301,188.0091,176.3300,57.35226,0.0022692,0.97802931,0.0000,07/22.0440/2019,2000,g 18.0,2.0
# From MPC117072
C/2019 Q3 (PANSTARRS),h,08/21.5450/2018,65.5273,151.3244,152.7569,1.003138,7.260536,2000,8.5,4.0
# From MPC117072
P/2019 S2 (PANSTARRS),e,10.4697,93.1394,217.0717,4.740039,0.0955061,0.20635355,112.2726,05/13.0/2022,2000,g 13.5,4.0
# From MPEC 2022-CN4
P/2019 S3 (PANSTARRS),e,8.6948,150.1607,213.0115,3.415343,0.1561538,0.47120661,154.6445,05/13.0/2022,2000,g 18.3,4.0
# From MPEC 2021-S45
C/2019 S4 (Lemmon),e,92.0478,63.1535,71.3689,230.5569,0.0002815,0.98506873,0.0000,04/07.9008/2020,2000,g 11.0,4.0
# From MPEC 2022-HC2
A/2019 T1,e,120.8753,6.9457,91.0647,38.50617,0.0041249,0.88879567,1.9941,05/13.0/2022,2000,g 13.0,2.0
# From MPEC 2022-J42
C/2019 T2 (Lemmon),e,111.4883,155.6435,239.4134,2462,0.0000081,0.99892535,0.0000,04/22.3723/2021,2000,g  9.0,4.0
# From MPEC 2022-C56
C/2019 T3 (ATLAS),e,121.8540,139.5277,112.3815,3565,0.0000046,0.99833145,0.0000,03/03.7167/2021,2000,g  6.8,4.0
# From MPEC 2022-J42
C/2019 T4 (ATLAS),e,53.6284,199.9391,351.2016,1010,0.0000307,0.99579912,0.0000,06/09.1406/2022,2000,g  5.0,4.0
# From MPEC 2021-P47
P/2019 T5 (ATLAS),e,33.4563,247.6493,189.5625,7.995817,0.0435923,0.80923849,44.2762,05/13.0/2022,2000,g 15.0,4.0
# From MPEC 2021-P47
P/2019 T6 (PANSTARRS),e,18.6964,71.2598,328.9374,5.435694,0.0777717,0.62287033,71.3088,05/13.0/2022,2000,g 15.5,4.0
# From MPC118096
P/2019 U4 (PANSTARRS),e,11.6978,200.0023,180.9950,3.520419,0.1492150,0.47586208,144.3098,05/13.0/2022,2000,g 19.0,4.0
# From MPEC 2022-J42
C/2019 U5 (PANSTARRS),h,03/29.9787/2023,113.5206,2.6378,181.5234,1.001264,3.623727,2000,4.5,4.0
# From MPEC 2022-H04
C/2019 U6 (Lemmon),e,60.9945,235.7164,329.6337,369.4160,0.0001388,0.99752501,0.0000,06/18.6438/2020,2000,g 10.0,4.0
# From MPC119998
C/2019 V1 (Borisov),e,61.8754,83.1842,51.1720,1440,0.0000180,0.99784989,0.0000,07/16.3859/2020,2000,g 11.0,4.0
# From MPEC 2022-HC2
P/2019 V2 (Groeller),e,11.8076,189.1826,335.8958,7.505815,0.0479300,0.33127278,27.3841,05/13.0/2022,2000,g 10.0,4.0
# From MPC119998
P/2019 W1 (PANSTARRS),e,23.4696,35.3806,18.6870,4.549579,0.1015657,0.26672990,111.8150,05/13.0/2022,2000,g 12.9,4.0
# From MPEC 2021-P47
P/2019 X1 (Pruyne),e,10.2477,43.6738,36.7862,6.173110,0.0642611,0.30319943,65.9742,05/13.0/2022,2000,g 10.4,4.0
# From MPC119999
C/2019 Y1 (ATLAS),e,73.3193,31.5383,57.9432,85.79948,0.0012402,0.99031900,0.0000,03/15.6742/2020,2000,g 13.7,4.0
# From MPEC 2020-L06
C/2019 Y4 (ATLAS),h,05/31.0400/2020,45.7795,120.9573,177.2812,1.001406,0.251994,2000,11.6,6.0
# From MPEC 2020-L06
C/2019 Y4-A (ATLAS),h,05/31.0400/2020,45.7795,120.9573,177.2812,1.001406,0.251994,2000,11.6,6.0
# From MPEC 2020-L06
C/2019 Y4-B (ATLAS),e,45.4142,120.6530,177.4141,1444,0.0000180,0.99982446,0.0000,05/31.0180/2020,2000,g 12.8,6.0
# From MPEC 2020-L06
C/2019 Y4-C (ATLAS),h,05/30.9968/2020,45.5616,120.6834,177.3146,1.002126,0.253052,2000,12.7,6.0
# From MPEC 2020-L06
C/2019 Y4-D (ATLAS),e,45.6040,121.0622,177.4525,68.30487,0.0017459,0.99630449,0.0000,05/31.1174/2020,2000,g 12.5,6.0
# From MPEC 2021-P47
C/2019 Y5 (PANSTARRS),e,82.7901,51.7705,303.5249,801.2224,0.0000435,0.99386429,0.0000,08/18.2095/2019,2000,g 11.0,4.0
# From MPEC 2022-HC2
A/2020 A1,e,149.0399,119.2568,302.5818,25.51719,0.0076464,0.93464294,6.8230,05/13.0/2022,2000,g 18.0,2.0
# From MPEC 2020-L06
C/2020 A2 (Iwamoto),e,120.7035,286.3544,68.1580,1337,0.0000202,0.99926995,0.0000,01/08.5186/2020,2000,g 13.5,4.0
# From MPEC 2020-L06
C/2020 A3 (ATLAS),h,07/29.8355/2019,146.7667,120.3857,271.1577,1.026075,5.837364,2000,8.0,4.0
# From MPEC 2020-L06
C/2020 B3 (Rankin),e,20.7102,185.8463,324.9860,1054,0.0000288,0.99682853,0.0000,10/19.4361/2019,2000,g 13.0,4.0
# From MPEC 2022-H04
P/2020 B4 (Sheppard),e,11.6085,185.9795,342.2439,7.967218,0.0438272,0.19170682,7.5449,05/13.0/2022,2000,g 10.5,4.0
# From MPEC 2022-J42
C/2020 F2 (ATLAS),h,07/15.8283/2022,163.5842,250.2697,48.3592,1.004977,8.817104,2000,4.5,4.0
# From MPEC 2021-O56
C/2020 F3 (NEOWISE),e,129.0077,61.0339,37.3121,342.0310,0.0001558,0.99913689,0.0000,07/03.6102/2020,2000,g  7.5,5.2
# From MPEC 2022-CN4
C/2020 F5 (MASTER),e,52.2861,350.5286,310.8155,291.2509,0.0001983,0.98515571,0.0000,03/20.1768/2021,2000,g  6.5,3.2
# From MPEC 2020-L06
C/2020 F6 (PANSTARRS),e,174.5829,207.9028,344.6131,413.4659,0.0001172,0.99151140,0.0000,04/11.7668/2020,2000,g 14.5,2.8
# From MPEC 2022-HC2
C/2020 F7 (Lemmon),e,93.9516,321.8840,227.9616,651.1710,0.0000593,0.99181155,0.0000,11/13.9258/2021,2000,g  7.0,4.0
# From MPEC 2020-KB7
C/2020 F8 (SWAN),e,110.7250,259.9512,68.1694,265.5224,0.0002278,0.99838184,0.0000,05/27.5638/2020,2000,g 10.0,4.0
# From MPEC 2020-L06
P/2020 G1 (Pimentel),e,18.4910,240.1032,207.6264,3.609103,0.1437491,0.86003889,113.0793,05/13.0/2022,2000,g 17.0,4.0
# From MPEC 2020-L06
C/2020 H2 (Pruyne),e,124.9939,277.6533,26.7011,192.5920,0.0003688,0.99567470,0.0000,04/27.7269/2020,2000,g 18.0,4.0
# From MPEC 2020-HM1
C/2020 H3 (Wierzchos),p,06/05.7162/2020,62.5292,30.4456,2.300288,270.6227,2000,13.5,4.0
# From MPEC 2020-L06
C/2020 H4 (Leonard),e,84.5084,307.7172,117.5681,47.97676,0.0029659,0.98070229,0.0000,08/29.5737/2020,2000,g 15.0,3.2
# From MPEC 2022-J42
C/2020 H5 (Robinson),e,70.2419,210.6283,326.3863,3479,0.0000048,0.99731376,0.0000,12/11.6210/2020,2000,g  5.0,4.0
# From MPEC 2022-J42
C/2020 H6 (ATLAS),h,10/01.0251/2021,79.9739,213.7112,20.3413,1.000399,4.702837,2000,8.0,3.2
# From MPEC 2020-KB7
C/2020 H7 (Lemmon),e,135.9235,323.5194,82.6780,1405,0.0000187,0.99685380,0.0000,06/02.9510/2020,2000,g 11.0,4.0
# From MPEC 2021-N06
C/2020 H8 (PANSTARRS),e,99.6625,68.4116,128.9476,591.1646,0.0000686,0.99209035,0.0000,06/04.4844/2020,2000,g 10.5,4.0
# From MPEC 2022-ED3
A/2020 H9,e,137.8731,213.1585,312.8662,368.8976,0.0001391,0.99301251,0.0000,12/21.3503/2019,2000,g 18.0,2.0
# From MPEC 2022-J42
C/2020 J1 (SONEAR),h,04/18.6429/2021,142.3003,226.5882,341.7626,1.000659,3.355121,2000,8.5,3.2
# From MPEC 2022-J42
C/2020 K1 (PANSTARRS),e,89.6617,94.3571,213.9764,28537,0.0000002,0.99989230,0.0000,05/09.0671/2023,2000,g  5.5,4.0
# From MPEC 2021-N06
C/2020 K2 (PANSTARRS),h,08/06.0633/2020,91.0370,288.3643,67.3362,1.003594,8.879284,2000,10.8,4.0
# From MPEC 2020-KF9
C/2020 K3 (Leonard),p,06/01.0032/2020,129.0152,64.4924,1.583069,28.3546,2000,14.5,4.0
# From MPEC 2020-L06
C/2020 K4 (PANSTARRS),e,125.5746,264.1329,308.8255,23.91993,0.0084249,0.92665854,6.7422,05/13.0/2022,2000,g 16.5,4.0
# From MPEC 2021-R75
C/2020 K5 (PANSTARRS),h,06/05.5692/2021,67.1448,86.1666,249.5963,1.001483,1.535888,2000,11.0,4.0
# From MPEC 2022-J42
C/2020 K6 (Rankin),h,09/15.6828/2021,103.6469,291.5318,44.3187,1.003350,5.868561,2000,8.0,4.0
# From MPEC 2021-S45
C/2020 K7 (PANSTARRS),e,32.0394,286.0678,358.2519,100.8234,0.0009736,0.93661774,0.9027,05/13.0/2022,2000,g  8.0,4.0
# From MPEC 2021-P47
C/2020 K8 (Catalina-ATLAS),h,09/14.5856/2020,31.4280,181.5424,259.9931,1.000149,0.473488,2000,15.0,3.2
# From MPEC 2021-BE3
P/2020 K9 (Lemmon-PANSTARRS),e,23.2099,166.2392,196.9511,4.200189,0.1144988,0.32140786,52.0859,05/13.0/2022,2000,g 12.5,4.0
# From MPEC 2021-U31
P/2020 M1 (PANSTARRS),e,8.5816,142.7559,72.2762,5.310002,0.0805493,0.47747680,69.6865,05/13.0/2022,2000,g 14.5,4.0
# From MPEC 2022-H30
C/2020 M3 (ATLAS),e,23.4721,71.2136,328.4840,26.96551,0.0070387,0.95297823,3.9719,05/13.0/2022,2000,g 14.5,4.0
# From MPEC 2022-CN4
A/2020 M4,h,11/24.1722/2020,160.1277,348.6211,104.6555,1.000392,5.952630,2000,14.5,2.0
# From MPEC 2022-J42
C/2020 M5 (ATLAS),h,08/19.8740/2021,93.2250,352.0937,126.3336,1.000314,3.004185,2000,9.0,4.0
# From MPEC 2022-GA9
C/2020 N1 (PANSTARRS),h,03/12.2208/2021,29.7066,279.9659,186.7579,1.000451,1.320071,2000,12.5,4.0
# From MPEC 2021-P47
C/2020 N2 (ATLAS),e,161.0353,257.1093,331.2845,103.3519,0.0009381,0.98263805,0.0000,08/23.8137/2020,2000,g 16.0,3.2
# From MPEC 2020-SI8
P/2020 O1 (Lemmon-PANSTARRS),e,5.2259,175.9745,104.5298,2.644860,0.2291395,0.11926014,169.6860,05/13.0/2022,2000,g 15.5,4.0
# From MPEC 2022-J42
C/2020 O2 (Amaral),h,08/28.6511/2021,71.7524,256.7585,10.3145,1.002278,4.862375,2000,8.0,3.2
# From MPEC 2020-SI8
P/2020 O3 (PANSTARRS),e,8.4427,266.8231,81.5751,4.649654,0.0983044,0.10373660,46.0000,05/13.0/2022,2000,g 12.0,4.0
# From MPEC 2021-BE3
C/2020 P1 (NEOWISE),h,10/20.2283/2020,45.1058,53.5102,8.8873,1.000273,0.341590,2000,14.0,3.2
# From MPEC 2022-HC2
C/2020 P3 (ATLAS),h,04/20.9160/2021,61.8869,19.4709,82.2542,1.000052,6.812335,2000,6.0,4.0
# From MPEC 2022-J42
